STARS (KUKAI)           
1 33498U 09002G   26196.84916847  .00001669  00000+0  15466-3 0  9995
2 33498  98.1554 145.3329 0009818  77.8702 282.3617 14.95927807942764
KKS-1 (KISEKI)          
1 33499U 09002H   26197.13145115  .00000555  00000+0  74836-4 0  9991
2 33499  98.1173 120.0323 0007512 185.7130 174.3998 14.83190279940480
UK-DMC 2                
1 35683U 09041C   26197.17152309 -.00000169  00000+0 -17256-4 0  9994
2 35683  97.8872 331.4348 0001582 100.0123 260.1266 14.76093196910848
OCEANSAT-2              
1 35931U 09051A   26197.22290524 -.00000058  00000+0 -14117-4 0  9999
2 35931  98.2320 181.1754 0017404 150.5263 209.6889 13.99655952883399
SWISSCUBE               
1 35932U 09051B   26197.17712106  .00000443  00000+0  97133-4 0  9994
2 35932  98.4006 105.5678 0007888 116.4429 243.7582 14.62531689893399
BEESAT-1                
1 35933U 09051C   26196.31185738  .00000377  00000+0  85523-4 0  9991
2 35933  98.3935 104.2639 0006132 129.5089 230.6654 14.61761931893299
ITUPSAT1                
1 35935U 09051E   26196.19038705  .00000349  00000+0  82054-4 0  9995
2 35935  98.4018 103.3025 0008086 143.1681 217.0076 14.60478742892822
DMSP 5D-3 F18 (USA 210) 
1 35951U 09057A   26197.20519905  .00000170  00000+0  11119-3 0  9993
2 35951  98.9057 177.9140 0011289 162.6646 197.4915 14.14912063863693
PROBA-2                 
1 36037U 09059B   26197.12611948  .00000055  00000+0  23429-4 0  9992
2 36037  98.2459  20.0791 0013065 185.7939 174.3109 14.54873843885737
YAOGAN-7                
1 36110U 09069A   26197.13155845  .00000192  00000+0  33865-4 0  9992
2 36110  98.0031  82.8149 0023453 308.1841  51.7257 14.78036013893907
XIWANG-1 (HOPE-1)       
1 36122U 09072B   26197.12354407  .00000012  00000+0  14858-3 0  9994
2 36122 100.4039 150.4957 0007539 162.6984 197.4387 13.16440679796815
COSMOS 2463             
1 36519U 10017A   26197.14887426  .00000031  00000+0  17036-4 0  9992
2 36519  82.9581 228.4264 0037251  51.3405   7.8305 13.71667236811907
CARTOSAT-2B             
1 36795U 10035A   26197.16749730  .00000378  00000+0  58642-4 0  9997
2 36795  97.9938 247.5291 0012686  96.9973 263.2681 14.78651445864138
TISAT 1                 
1 36799U 10035E   26196.78600925  .00012652  00000+0  40253-3 0  9996
2 36799  98.0716 145.8980 0004554 118.9066 241.2631 15.32747095872088
YAOGAN-10               
1 36834U 10038A   26197.18830196  .00001245  00000+0  15067-3 0  9990
2 36834  97.8966 220.3615 0001700  83.5383   7.3167 14.85433200861513
SHIJIAN-6 04B (SJ-6 04B)
1 37180U 10051B   26197.18688824 -.00000170  00000+0 -88752-5 0  9990
2 37180  97.8729 202.9078 0007818 208.8852 151.1938 14.99382911860029
FENGYUN 3B              
1 37214U 10059A   26197.23133287 -.00000263  00000+0 -11277-3 0  9999
2 37214  98.9605 243.3667 0023189 103.7056 336.2051 14.14846062811536
COSMO-SKYMED 4          
1 37216U 10060A   26197.13573036  .00000391  00000+0  55699-4 0  9999
2 37216  97.8886  20.3163 0001487  86.8479 273.2904 14.82149361848853
O/OREOS (USA 219)       
1 37224U 10062C   26196.92499132  .00001000  00000+0  99967-4 0  9994
2 37224  71.9698  15.2352 0013999   3.6363 356.4907 14.93853123120938
RESOURCESAT-2           
1 37387U 11015A   26197.15712600  .00000027  00000+0  32250-4 0  9997
2 37387  98.7632 264.3967 0011606 168.3897 191.7550 14.21599677790294
YOUTHSAT                
1 37388U 11015B   26196.93167513  .00000072  00000+0  47850-4 0  9992
2 37388  98.3703 169.6928 0013183 256.8793 163.0264 14.25640786791730
APRIZESAT 6             
1 37793U 11044F   26196.34067692  .00000355  00000+0  57569-4 0  9998
2 37793  98.2338 107.4128 0043042 357.8013 119.3307 14.76956881801308
JUGNU                   
1 37839U 11058B   26197.17767124  .00000337  00000+0  36708-4 0  9995
2 37839  19.9596 132.2939 0018592  37.2294  97.4128 14.13783599763133
SRMSAT                  
1 37841U 11058D   26197.19967284  .00000332  00000+0  36066-4 0  9991
2 37841  19.9709 243.8664 0011730 162.2183 240.1222 14.11581214761924
SUOMI NPP               
1 37849U 11061A   26197.16928875  .00000012  00000+0  26568-4 0  9994
2 37849  98.7956 137.8483 0000790 208.3291 151.7842 14.19522661762552
YAOGAN-12               
1 37875U 11066B   26197.16909736  .00003480  00000+0  13416-3 0  9992
2 37875  97.1121 234.3775 0010898 119.5631 240.6696 15.26901029816469
