OBJECT_NAME,OBJECT_ID,EPOCH,MEAN_MOTION,ECCENTRICITY,INCLINATION,RA_OF_ASC_NODE,ARG_OF_PERICENTER,MEAN_ANOMALY,EPHEMERIS_TYPE,CLASSIFICATION_TYPE,NORAD_CAT_ID,ELEMENT_SET_NO,REV_AT_EPOCH,BSTAR,MEAN_MOTION_DOT,MEAN_MOTION_DDOT
STARS (KUKAI),2009-002G,2026-07-15T20:22:48.155808,14.95927807,.00098184,98.1554,145.3329,77.8702,282.3617,0,U,33498,999,94276,.15465744E-3,.1669E-4,0
KKS-1 (KISEKI),2009-002H,2026-07-16T03:09:17.379360,14.83190279,.0007512,98.1173,120.0323,185.7130,174.3998,0,U,33499,999,94048,.74836E-4,.555E-5,0
UK-DMC 2,2009-041C,2026-07-16T04:06:59.594976,14.76093196,.0001582,97.8872,331.4348,100.0123,260.1266,0,U,35683,999,91084,-.17256E-4,-.169E-5,0
OCEANSAT-2,2009-051A,2026-07-16T05:20:59.012736,13.99655952,.0017404,98.2320,181.1754,150.5263,209.6889,0,U,35931,999,88339,-.14117E-4,-.58E-6,0
SWISSCUBE,2009-051B,2026-07-16T04:15:03.259584,14.62531689,.0007888,98.4006,105.5678,116.4429,243.7582,0,U,35932,999,89339,.97133E-4,.443E-5,0
BEESAT-1,2009-051C,2026-07-15T07:29:04.477632,14.61761931,.0006132,98.3935,104.2639,129.5089,230.6654,0,U,35933,999,89329,.85522677E-4,.377E-5,0
ITUPSAT1,2009-051E,2026-07-15T04:34:09.441120,14.60478742,.00080864,98.4018,103.3025,143.1681,217.0076,0,U,35935,999,89282,.82053832E-4,.349E-5,0
DMSP 5D-3 F18 (USA 210),2009-057A,2026-07-16T04:55:29.197920,14.14912063,.0011289,98.9057,177.9140,162.6646,197.4915,0,U,35951,999,86369,.11119E-3,.17E-5,0
PROBA-2,2009-059B,2026-07-16T03:01:36.723072,14.54873843,.0013065,98.2459,20.0791,185.7939,174.3109,0,U,36037,999,88573,.23429E-4,.55E-6,0
YAOGAN-7,2009-069A,2026-07-16T03:09:26.650080,14.78036013,.0023453,98.0031,82.8149,308.1841,51.7257,0,U,36110,999,89390,.33865E-4,.192E-5,0
XIWANG-1 (HOPE-1),2009-072B,2026-07-16T02:57:54.207648,13.16440679,.0007539,100.4039,150.4957,162.6984,197.4387,0,U,36122,999,79681,.14858E-3,.12E-6,0
COSMOS 2463,2010-017A,2026-07-16T03:34:22.736064,13.71667236,.0037251,82.9581,228.4264,51.3405,7.8305,0,U,36519,999,81190,.17036E-4,.31E-6,0
CARTOSAT-2B,2010-035A,2026-07-16T04:01:11.766720,14.78651445,.0012686,97.9938,247.5291,96.9973,263.2681,0,U,36795,999,86413,.58642E-4,.378E-5,0
TISAT 1,2010-035E,2026-07-15T18:51:51.199200,15.32747095,.00045546,98.0716,145.8980,118.9066,241.2631,0,U,36799,999,87208,.4025264E-3,.12652E-3,0
YAOGAN-10,2010-038A,2026-07-16T04:31:09.289344,14.85433200,.00017,97.8966,220.3615,83.5383,7.3167,0,U,36834,999,86151,.15067E-3,.1245E-4,0
SHIJIAN-6 04B (SJ-6 04B),2010-051B,2026-07-16T04:29:07.143936,14.99382911,.0007818,97.8729,202.9078,208.8852,151.1938,0,U,37180,999,86002,-.88752E-5,-.17E-5,0
FENGYUN 3B,2010-059A,2026-07-16T05:33:07.159968,14.14846062,.0023189,98.9605,243.3667,103.7056,336.2051,0,U,37214,999,81153,-.11277E-3,-.263E-5,0
COSMO-SKYMED 4,2010-060A,2026-07-16T03:15:27.103104,14.82149361,.0001487,97.8886,20.3163,86.8479,273.2904,0,U,37216,999,84885,.55699E-4,.391E-5,0
O/OREOS (USA 219),2010-062C,2026-07-15T22:11:59.250048,14.93853123,.0013999,71.9698,15.2352,3.6363,356.4907,0,U,37224,999,12093,.99967E-4,.1E-4,0
RESOURCESAT-2,2011-015A,2026-07-16T03:46:15.686400,14.21599677,.0011606,98.7632,264.3967,168.3897,191.7550,0,U,37387,999,79029,.3225E-4,.27E-6,0
YOUTHSAT,2011-015B,2026-07-15T22:21:36.731232,14.25640786,.0013183,98.3703,169.6928,256.8793,163.0264,0,U,37388,999,79173,.4785E-4,.72E-6,0
APRIZESAT 6,2011-044F,2026-07-15T08:10:34.485888,14.76956881,.00430427,98.2338,107.4128,357.8013,119.3307,0,U,37793,999,80130,.57568561E-4,.355E-5,0
JUGNU,2011-058B,2026-07-16T04:15:50.795136,14.13783599,.0018592,19.9596,132.2939,37.2294,97.4128,0,U,37839,999,76313,.36708E-4,.337E-5,0
SRMSAT,2011-058D,2026-07-16T04:47:31.733376,14.11581214,.001173,19.9709,243.8664,162.2183,240.1222,0,U,37841,999,76192,.36066E-4,.332E-5,0
SUOMI NPP,2011-061A,2026-07-16T04:03:46.548000,14.19522661,.000079,98.7956,137.8483,208.3291,151.7842,0,U,37849,999,76255,.26568E-4,.12E-6,0
YAOGAN-12,2011-066B,2026-07-16T04:03:30.011904,15.26901029,.0010898,97.1121,234.3775,119.5631,240.6696,0,U,37875,999,81646,.13416E-3,.348E-4,0
